[{"OBJECT_NAME":"STARLINK-4144","OBJECT_ID":"2022-086R","EPOCH":"2026-03-09T14:44:04.925760","MEAN_MOTION":15.0884349,"ECCENTRICITY":0.0001162,"INCLINATION":53.2167,"RA_OF_ASC_NODE":194.4603,"ARG_OF_PERICENTER":98.4624,"MEAN_ANOMALY":261.65,"EPHEMERIS_TYPE":0,"CLASSIFICATION_TYPE":"U","NORAD_CAT_ID":53257,"ELEMENT_SET_NO":999,"REV_AT_EPOCH":20105,"BSTAR":-1.3508e-5,"MEAN_MOTION_DOT":-5.03e-6,"MEAN_MOTION_DDOT":0},{"OBJECT_NAME":"OBJECT R","OBJECT_ID":"2021-022R","EPOCH":"2026-03-09T22:54:37.456416","MEAN_MOTION":15.08912229,"ECCENTRICITY":0.00182027,"INCLINATION":97.3728,"RA_OF_ASC_NODE":308.5333,"ARG_OF_PERICENTER":149.1845,"MEAN_ANOMALY":211.0456,"EPHEMERIS_TYPE":0,"CLASSIFICATION_TYPE":"U","NORAD_CAT_ID":47947,"ELEMENT_SET_NO":999,"REV_AT_EPOCH":27304,"BSTAR":2.1057411e-5,"MEAN_MOTION_DOT":2.72e-6,"MEAN_MOTION_DDOT":0}]
